
    {
        "ARG_OF_PERICENTER": 83.2342,
        "BSTAR": 1.271892e-05,
        "CLASSIFICATION_TYPE": "U",
        "ECCENTRICITY": 0.00014494,
        "ELEMENT_SET_NO": 999,
        "EPHEMERIS_TYPE": 0,
        "EPOCH": "2026-06-19T13:50:09.693312",
        "INCLINATION": 98.0572,
        "MEAN_ANOMALY": 276.9028,
        "MEAN_MOTION": 14.67554519,
        "MEAN_MOTION_DDOT": 0,
        "MEAN_MOTION_DOT": 2.4e-07,
        "NORAD_CAT_ID": 64694,
        "OBJECT_ID": "2025-141A",
        "OBJECT_NAME": "GOSAT-GW (IBUKI GW)",
        "RA_OF_ASC_NODE": 107.8546,
        "REV_AT_EPOCH": 5219
    },
    {
        "ARG_OF_PERICENTER": 152.6858,
        "BSTAR": 3.8288283e-05,
        "CLASSIFICATION_TYPE": "U",
        "ECCENTRICITY": 0.00011471,
        "ELEMENT_SET_NO": 999,
        "EPHEMERIS_TYPE": 0,
        "EPOCH": "2026-06-19T13:38:51.252000",
        "INCLINATION": 98.6032,
        "MEAN_ANOMALY": 207.438,
        "MEAN_MOTION": 14.21486782,
        "MEAN_MOTION_DDOT": 0,
        "MEAN_MOTION_DOT": 4.1e-07,
        "NORAD_CAT_ID": 64876,
        "OBJECT_ID": "2025-155A",
        "OBJECT_NAME": "IONOSFERA-M 3",
        "RA_OF_ASC_NODE": 132.4137,
        "REV_AT_EPOCH": 4674
    },
    {
        "ARG_OF_PERICENTER": 120.0119,
        "BSTAR": 3.5627101e-05,
        "CLASSIFICATION_TYPE": "U",
        "ECCENTRICITY": 0.00011316,
        "ELEMENT_SET_NO": 999,
        "EPHEMERIS_TYPE": 0,
        "EPOCH": "2026-06-19T14:29:01.242240",
        "INCLINATION": 98.6031,
        "MEAN_ANOMALY": 240.1171,
        "MEAN_MOTION": 14.2148899,
        "MEAN_MOTION_DDOT": 0,
        "MEAN_MOTION_DOT": 3.5e-07,
        "NORAD_CAT_ID": 64877,
        "OBJECT_ID": "2025-155B",
        "OBJECT_NAME": "IONOSFERA-M 4",
        "RA_OF_ASC_NODE": 132.3651,
        "REV_AT_EPOCH": 4674
    },
    {
        "ARG_OF_PERICENTER": 264.2805,
        "BSTAR": 6.8667092e-05,
        "CLASSIFICATION_TYPE": "U",
        "ECCENTRICITY": 0.00149923,
        "ELEMENT_SET_NO": 999,
        "EPHEMERIS_TYPE": 0,
        "EPOCH": "2026-06-19T11:02:59.647776",
        "INCLINATION": 97.9831,
        "MEAN_ANOMALY": 95.6693,
        "MEAN_MOTION": 14.72327542,
        "MEAN_MOTION_DDOT": 0,
        "MEAN_MOTION_DOT": 3.85e-06,
        "NORAD_CAT_ID": 64899,
        "OBJECT_ID": "2025-156A",
        "OBJECT_NAME": "MICROCARB",
        "RA_OF_ASC_NODE": 247.5572,
        "REV_AT_EPOCH": 4830
    },
    {
        "ARG_OF_PERICENTER": 129.0907,
        "BSTAR": 0.00016336402,
        "CLASSIFICATION_TYPE": "U",
        "ECCENTRICITY": 0.00016009,
        "ELEMENT_SET_NO": 999,
        "EPHEMERIS_TYPE": 0,
        "EPOCH": "2026-06-19T13:22:26.600448",
        "INCLINATION": 97.4328,
        "MEAN_ANOMALY": 231.0471,
        "MEAN_MOTION": 15.20210393,
        "MEAN_MOTION_DDOT": 0,
        "MEAN_MOTION_DOT": 3.471e-05,
        "NORAD_CAT_ID": 64900,
        "OBJECT_ID": "2025-156B",
        "OBJECT_NAME": "CO3D 3",
        "RA_OF_ASC_NODE": 249.2165,
        "REV_AT_EPOCH": 4989
    },
    {
        "ARG_OF_PERICENTER": 3.6734,
        "BSTAR": 1.3216641e-05,
        "CLASSIFICATION_TYPE": "U",
        "ECCENTRICITY": 1.122e-05,
        "ELEMENT_SET_NO": 999,
        "EPHEMERIS_TYPE": 0,
        "EPOCH": "2026-06-18T20:00:01.358784",
        "INCLINATION": 97.4333,
        "MEAN_ANOMALY": 356.4502,
        "MEAN_MOTION": 15.20208932,
        "MEAN_MOTION_DDOT": 0,
        "MEAN_MOTION_DOT": 2.19e-06,
        "NORAD_CAT_ID": 64901,
        "OBJECT_ID": "2025-156C",
        "OBJECT_NAME": "CO3D 4",
        "RA_OF_ASC_NODE": 248.5023,
        "REV_AT_EPOCH": 4978
    },
    {
        "ARG_OF_PERICENTER": 107.0016,
        "BSTAR": 0.00015252616,
        "CLASSIFICATION_TYPE": "U",
        "ECCENTRICITY": 0.00015138,
        "ELEMENT_SET_NO": 999,
        "EPHEMERIS_TYPE": 0,
        "EPOCH": "2026-06-19T12:34:38.661312",
        "INCLINATION": 97.4328,
        "MEAN_ANOMALY": 253.1386,
        "MEAN_MOTION": 15.20211845,
        "MEAN_MOTION_DDOT": 0,
        "MEAN_MOTION_DOT": 3.237e-05,
        "NORAD_CAT_ID": 64902,
        "OBJECT_ID": "2025-156D",
        "OBJECT_NAME": "CO3D 2",
        "RA_OF_ASC_NODE": 249.0826,
        "REV_AT_EPOCH": 4988
    },
    {
        "ARG_OF_PERICENTER": 113.4467,
        "BSTAR": 0.00018922526,
        "CLASSIFICATION_TYPE": "U",
        "ECCENTRICITY": 0.00013499,
        "ELEMENT_SET_NO": 999,
        "EPHEMERIS_TYPE": 0,
        "EPOCH": "2026-06-19T12:34:51.909024",
        "INCLINATION": 97.4326,
        "MEAN_ANOMALY": 246.691,
        "MEAN_MOTION": 15.20211449,
        "MEAN_MOTION_DDOT": 0,
        "MEAN_MOTION_DOT": 4.032e-05,
        "NORAD_CAT_ID": 64903,
        "OBJECT_ID": "2025-156E",
        "OBJECT_NAME": "CO3D 1",
        "RA_OF_ASC_NODE": 249.083,
        "REV_AT_EPOCH": 4988
    },
    {
        "ARG_OF_PERICENTER": 0.3756,
        "BSTAR": 0.00024164023,
        "CLASSIFICATION_TYPE": "U",
        "ECCENTRICITY": 0.00062211,
        "ELEMENT_SET_NO": 999,
        "EPHEMERIS_TYPE": 0,
        "EPOCH": "2026-06-19T15:36:54.453600",
        "INCLINATION": 41.1305,
        "MEAN_ANOMALY": 359.7061,
        "MEAN_MOTION": 15.06475864,
        "MEAN_MOTION_DDOT": 0,
        "MEAN_MOTION_DOT": 3.455e-05,
        "NORAD_CAT_ID": 65055,
        "OBJECT_ID": "2025-164A",
        "OBJECT_NAME": "PRSC-S1",
        "RA_OF_ASC_NODE": 273.9386,
        "REV_AT_EPOCH": 4880
    },
    {
        "ARG_OF_PERICENTER": 269.1481,
        "BSTAR": 4.1221649e-05,
        "CLASSIFICATION_TYPE": "U",
        "ECCENTRICITY": 0.00080027,
        "ELEMENT_SET_NO": 999,
        "EPHEMERIS_TYPE": 0,
        "EPOCH": "2026-06-19T14:01:20.191008",
        "INCLINATION": 66.0398,
        "MEAN_ANOMALY": 90.8617,
        "MEAN_MOTION": 12.80929984,
        "MEAN_MOTION_DDOT": 0,
        "MEAN_MOTION_DOT": -5.2e-07,
        "NORAD_CAT_ID": 66514,
        "OBJECT_ID": "2025-264A",
        "OBJECT_NAME": "SENTINEL-6B",
        "RA_OF_ASC_NODE": 130.1996,
        "REV_AT_EPOCH": 2747
    },
    {
        "ARG_OF_PERICENTER": 104.6525,
        "BSTAR": 0.00011064271,
        "CLASSIFICATION_TYPE": "U",
        "ECCENTRICITY": 0.00068258,
        "ELEMENT_SET_NO": 999,
        "EPHEMERIS_TYPE": 0,
        "EPOCH": "2026-06-19T08:47:57.513696",
        "INCLINATION": 97.7445,
        "MEAN_ANOMALY": 255.5449,
        "MEAN_MOTION": 14.88325464,
        "MEAN_MOTION_DDOT": 0,
        "MEAN_MOTION_DOT": 9.7e-06,
        "NORAD_CAT_ID": 66655,
        "OBJECT_ID": "2025-274F",
        "OBJECT_NAME": "CAS500-3",
        "RA_OF_ASC_NODE": 98.3681,
        "REV_AT_EPOCH": 3047
    },
    {
        "ARG_OF_PERICENTER": 94.9001,
        "BSTAR": 3.6262382e-05,
        "CLASSIFICATION_TYPE": "U",
        "ECCENTRICITY": 0.00013771,
        "ELEMENT_SET_NO": 999,
        "EPHEMERIS_TYPE": 0,
        "EPOCH": "2026-06-19T11:51:55.936224",
        "INCLINATION": 97.8888,
        "MEAN_ANOMALY": 265.237,
        "MEAN_MOTION": 14.82155084,
        "MEAN_MOTION_DDOT": 0,
        "MEAN_MOTION_DOT": 2.36e-06,
        "NORAD_CAT_ID": 67304,
        "OBJECT_ID": "2026-001A",
        "OBJECT_NAME": "CSG-3",
        "RA_OF_ASC_NODE": 354.0628,
        "REV_AT_EPOCH": 2480
    },
    {
        "ARG_OF_PERICENTER": 23.0547,
        "BSTAR": 0.0001553473,
        "CLASSIFICATION_TYPE": "U",
        "ECCENTRICITY": 0.00033142,
        "ELEMENT_SET_NO": 999,
        "EPHEMERIS_TYPE": 0,
        "EPOCH": "2026-06-19T10:35:54.562272",
        "INCLINATION": 38.0013,
        "MEAN_ANOMALY": 337.0363,
        "MEAN_MOTION": 15.06678453,
        "MEAN_MOTION_DDOT": 0,
        "MEAN_MOTION_DOT": 2.241e-05,
        "NORAD_CAT_ID": 68835,
        "OBJECT_ID": "2026-092A",
        "OBJECT_NAME": "PRSC-E03",
        "RA_OF_ASC_NODE": 76.3863,
        "REV_AT_EPOCH": 829
    }